LUR-1                   
1 60506U 24149AQ  26068.79566301  .00009121  00000+0  32985-3 0  9998
2 60506  97.3790 148.4255 0002777 309.1571  50.9421 15.28658648 86785
STARLINK-35756          
1 67175U 25303N   26068.03239891  .00039459  00000+0  14361-2 0  9992
2 67175  42.9985 314.5080 0001246 282.7814  77.2899 15.27573218 12636
