[{"OBJECT_NAME":"LUR-1","OBJECT_ID":"2024-149AQ","EPOCH":"2026-03-09T19:05:45.284064","MEAN_MOTION":15.28658648,"ECCENTRICITY":0.00027765,"INCLINATION":97.379,"RA_OF_ASC_NODE":148.4255,"ARG_OF_PERICENTER":309.1571,"MEAN_ANOMALY":50.9421,"EPHEMERIS_TYPE":0,"CLASSIFICATION_TYPE":"U","NORAD_CAT_ID":60506,"ELEMENT_SET_NO":999,"REV_AT_EPOCH":8678,"BSTAR":0.0003298462,"MEAN_MOTION_DOT":9.121e-5,"MEAN_MOTION_DDOT":0},{"OBJECT_NAME":"STARLINK-35756","OBJECT_ID":"2025-303N","EPOCH":"2026-03-09T00:46:39.265824","MEAN_MOTION":15.27573218,"ECCENTRICITY":0.00012467,"INCLINATION":42.9985,"RA_OF_ASC_NODE":314.508,"ARG_OF_PERICENTER":282.7814,"MEAN_ANOMALY":77.2899,"EPHEMERIS_TYPE":0,"CLASSIFICATION_TYPE":"U","NORAD_CAT_ID":67175,"ELEMENT_SET_NO":999,"REV_AT_EPOCH":1263,"BSTAR":0.0014360744,"MEAN_MOTION_DOT":0.00039459,"MEAN_MOTION_DDOT":0}]
